O3B MPOWER F1           
1 54755U 22174A   24066.06699174 -.00000016  00000+0  00000+0 0  9998
2 54755   0.0641   6.7921 0006474 348.2174 129.2665  5.00118296 23686
